{
  "type": "FeatureCollection",
  "features": [
    {
      "type": "Feature",
      "properties": {
        "norad_id": 43260,
        "name": "GAOFEN-1 03",
        "group": "resource",
        "lat": 71.60418436498117,
        "lon": -118.38723737934222,
        "alt_km": 634.441782625614,
        "timestamp": "2025-12-04T15:47:53.753687+00:00",
        "meta_object_name": "GAOFEN-1 03",
        "meta_object_id": "2018-031B",
        "meta_epoch": "2025-12-04T07:11:05.250048",
        "meta_mean_motion": 14.76410284,
        "meta_eccentricity": 0.0002569,
        "meta_inclination": 98.0811,
        "meta_ra_of_asc_node": 35.963,
        "meta_arg_of_pericenter": 355.6508,
        "meta_mean_anomaly": 4.4679,
        "meta_ephemeris_type": 0,
        "meta_classification_type": "U",
        "meta_norad_cat_id": 43260,
        "meta_element_set_no": 999,
        "meta_rev_at_epoch": 41393,
        "meta_bstar": 0.00028625097,
        "meta_mean_motion_dot": 1.938e-05,
        "meta_mean_motion_ddot": 0,
        "tle_line1": "1 43260U 18031B   25338.29936632  .00001938  00000+0  28625-3 0  9995",
        "tle_line2": "2 43260  98.0811  35.9630 0002569 355.6508   4.4679 14.76410284413931"
      },
      "geometry": {
        "type": "Point",
        "coordinates": [
          -118.38723737934222,
          71.60418436498117
        ]
      }
    },
    {
      "type": "Feature",
      "properties": {
        "norad_id": 43262,
        "name": "GAOFEN-1 04",
        "group": "resource",
        "lat": -54.76898083536099,
        "lon": -155.11713079822744,
        "alt_km": 648.5903696862379,
        "timestamp": "2025-12-04T15:47:53.753697+00:00",
        "meta_object_name": "GAOFEN-1 04",
        "meta_object_id": "2018-031D",
        "meta_epoch": "2025-12-04T08:13:43.130784",
        "meta_mean_motion": 14.7642363,
        "meta_eccentricity": 0.00013223,
        "meta_inclination": 98.082,
        "meta_ra_of_asc_node": 36.1746,
        "meta_arg_of_pericenter": 61.9779,
        "meta_mean_anomaly": 298.1564,
        "meta_ephemeris_type": 0,
        "meta_classification_type": "U",
        "meta_norad_cat_id": 43262,
        "meta_element_set_no": 999,
        "meta_rev_at_epoch": 41393,
        "meta_bstar": 0.00028956732,
        "meta_mean_motion_dot": 1.962e-05,
        "meta_mean_motion_ddot": 0,
        "tle_line1": "1 43262U 18031D   25338.34286031  .00001962  00000+0  28957-3 0  9999",
        "tle_line2": "2 43262  98.0820  36.1746 0001322  61.9779 298.1564 14.76423630413931"
      },
      "geometry": {
        "type": "Point",
        "coordinates": [
          -155.11713079822744,
          -54.76898083536099
        ]
      }
    },
    {
      "type": "Feature",
      "properties": {
        "norad_id": 43437,
        "name": "SENTINEL-3B",
        "group": "resource",
        "lat": 44.91303761731423,
        "lon": 35.25263315627074,
        "alt_km": 798.3072564064369,
        "timestamp": "2025-12-04T15:47:53.753712+00:00",
        "meta_object_name": "SENTINEL-3B",
        "meta_object_id": "2018-039A",
        "meta_epoch": "2025-12-04T03:48:12.929472",
        "meta_mean_motion": 14.26737832,
        "meta_eccentricity": 0.00014792,
        "meta_inclination": 98.6278,
        "meta_ra_of_asc_node": 43.4663,
        "meta_arg_of_pericenter": 111.1167,
        "meta_mean_anomaly": 249.0172,
        "meta_ephemeris_type": 0,
        "meta_classification_type": "U",
        "meta_norad_cat_id": 43437,
        "meta_element_set_no": 999,
        "meta_rev_at_epoch": 39631,
        "meta_bstar": 0.00014970401,
        "meta_mean_motion_dot": 3.19e-06,
        "meta_mean_motion_ddot": 0,
        "tle_line1": "1 43437U 18039A   25338.15848298  .00000319  00000+0  14970-3 0  9994",
        "tle_line2": "2 43437  98.6278  43.4663 0001479 111.1167 249.0172 14.26737832396318"
      },
      "geometry": {
        "type": "Point",
        "coordinates": [
          35.25263315627074,
          44.91303761731423
        ]
      }
    },
    {
      "type": "Feature",
      "properties": {
        "norad_id": 43461,
        "name": "GAOFEN-5 01",
        "group": "resource",
        "lat": 42.50821852370174,
        "lon": 129.29882340303968,
        "alt_km": 689.0857953445939,
        "timestamp": "2025-12-04T15:47:53.753723+00:00",
        "meta_object_name": "GAOFEN-5 01",
        "meta_object_id": "2018-043A",
        "meta_epoch": "2025-12-04T05:18:27.782496",
        "meta_mean_motion": 14.60395165,
        "meta_eccentricity": 0.00015166,
        "meta_inclination": 98.4314,
        "meta_ra_of_asc_node": 301.0404,
        "meta_arg_of_pericenter": 8.3662,
        "meta_mean_anomaly": 351.7562,
        "meta_ephemeris_type": 0,
        "meta_classification_type": "U",
        "meta_norad_cat_id": 43461,
        "meta_element_set_no": 999,
        "meta_rev_at_epoch": 40323,
        "meta_bstar": 0.00021633509,
        "meta_mean_motion_dot": 9.98e-06,
        "meta_mean_motion_ddot": 0,
        "tle_line1": "1 43461U 18043A   25338.22115489  .00000998  00000+0  21634-3 0  9991",
        "tle_line2": "2 43461  98.4314 301.0404 0001516   8.3662 351.7562 14.60395165403230"
      },
      "geometry": {
        "type": "Point",
        "coordinates": [
          129.29882340303968,
          42.50821852370174
        ]
      }
    },
    {
      "type": "Feature",
      "properties": {
        "norad_id": 43484,
        "name": "GAOFEN-6",
        "group": "resource",
        "lat": 22.977625816286846,
        "lon": 39.862528642186575,
        "alt_km": 635.7949475852911,
        "timestamp": "2025-12-04T15:47:53.753734+00:00",
        "meta_object_name": "GAOFEN-6",
        "meta_object_id": "2018-048A",
        "meta_epoch": "2025-12-04T07:33:41.425920",
        "meta_mean_motion": 14.76540114,
        "meta_eccentricity": 0.00133289,
        "meta_inclination": 97.8043,
        "meta_ra_of_asc_node": 42.8647,
        "meta_arg_of_pericenter": 88.5555,
        "meta_mean_anomaly": 271.7182,
        "meta_ephemeris_type": 0,
        "meta_classification_type": "U",
        "meta_norad_cat_id": 43484,
        "meta_element_set_no": 999,
        "meta_rev_at_epoch": 40463,
        "meta_bstar": 0.00011571971,
        "meta_mean_motion_dot": 7.58e-06,
        "meta_mean_motion_ddot": 0,
        "tle_line1": "1 43484U 18048A   25338.31506280  .00000758  00000+0  11572-3 0  9998",
        "tle_line2": "2 43484  97.8043  42.8647 0013328  88.5555 271.7182 14.76540114404638"
      },
      "geometry": {
        "type": "Point",
        "coordinates": [
          39.862528642186575,
          22.977625816286846
        ]
      }
    },
    {
      "type": "Feature",
      "properties": {
        "norad_id": 43585,
        "name": "GAOFEN-11 01",
        "group": "resource",
        "lat": -63.573832937758574,
        "lon": -152.98475699739504,
        "alt_km": 428.06563720998383,
        "timestamp": "2025-12-04T15:47:53.753744+00:00",
        "meta_object_name": "GAOFEN-11 01",
        "meta_object_id": "2018-063A",
        "meta_epoch": "2025-12-04T08:32:36.945024",
        "meta_mean_motion": 15.48865725,
        "meta_eccentricity": 0.00048679,
        "meta_inclination": 97.1576,
        "meta_ra_of_asc_node": 41.3627,
        "meta_arg_of_pericenter": 350.1231,
        "meta_mean_anomaly": 9.9923,
        "meta_ephemeris_type": 0,
        "meta_classification_type": "U",
        "meta_norad_cat_id": 43585,
        "meta_element_set_no": 999,
        "meta_rev_at_epoch": 41012,
        "meta_bstar": 0.00054156955,
        "meta_mean_motion_dot": 0.00029155,
        "meta_mean_motion_ddot": 0,
        "tle_line1": "1 43585U 18063A   25338.35598316  .00029155  00000+0  54157-3 0  9990",
        "tle_line2": "2 43585  97.1576  41.3627 0004867 350.1231   9.9923 15.48865725410126"
      },
      "geometry": {
        "type": "Point",
        "coordinates": [
          -152.98475699739504,
          -63.573832937758574
        ]
      }
    },
    {
      "type": "Feature",
      "properties": {
        "norad_id": 43613,
        "name": "ICESAT-2",
        "group": "resource",
        "lat": -47.45927386604401,
        "lon": 56.367047545038,
        "alt_km": 487.8848477634201,
        "timestamp": "2025-12-04T15:47:53.753754+00:00",
        "meta_object_name": "ICESAT-2",
        "meta_object_id": "2018-070A",
        "meta_epoch": "2025-12-04T06:56:55.370400",
        "meta_mean_motion": 15.2826944,
        "meta_eccentricity": 4.297e-05,
        "meta_inclination": 92.0056,
        "meta_ra_of_asc_node": 238.4561,
        "meta_arg_of_pericenter": 141.6999,
        "meta_mean_anomaly": 218.4281,
        "meta_ephemeris_type": 0,
        "meta_classification_type": "U",
        "meta_norad_cat_id": 43613,
        "meta_element_set_no": 999,
        "meta_rev_at_epoch": 40269,
        "meta_bstar": 0.0010074451,
        "meta_mean_motion_dot": 0.00027792,
        "meta_mean_motion_ddot": 0,
        "tle_line1": "1 43613U 18070A   25338.28952975  .00027792  00000+0  10074-2 0  9991",
        "tle_line2": "2 43613  92.0056 238.4561 0000429 141.6999 218.4281 15.28269440402692"
      },
      "geometry": {
        "type": "Point",
        "coordinates": [
          56.367047545038,
          -47.45927386604401
        ]
      }
    }
  ]
}